[{"OBJECT_NAME":"ICEYE-X53","OBJECT_ID":"2025-135BJ","EPOCH":"2026-03-09T22:54:54.338112","MEAN_MOTION":15.00849861,"ECCENTRICITY":0.00010276,"INCLINATION":97.7425,"RA_OF_ASC_NODE":186.1287,"ARG_OF_PERICENTER":193.9381,"MEAN_ANOMALY":166.1815,"EPHEMERIS_TYPE":0,"CLASSIFICATION_TYPE":"U","NORAD_CAT_ID":64584,"ELEMENT_SET_NO":999,"REV_AT_EPOCH":3919,"BSTAR":0.00050918186,"MEAN_MOTION_DOT":6.416e-5,"MEAN_MOTION_DDOT":0},{"OBJECT_NAME":"CZ-2C DEB","OBJECT_ID":"2014-059C","EPOCH":"2026-03-09T21:10:12.095616","MEAN_MOTION":14.89082619,"ECCENTRICITY":0.00574388,"INCLINATION":98.186,"RA_OF_ASC_NODE":178.5961,"ARG_OF_PERICENTER":246.4472,"MEAN_ANOMALY":113.0704,"EPHEMERIS_TYPE":0,"CLASSIFICATION_TYPE":"U","NORAD_CAT_ID":40263,"ELEMENT_SET_NO":999,"REV_AT_EPOCH":60828,"BSTAR":0.0019374157,"MEAN_MOTION_DOT":0.00018813,"MEAN_MOTION_DDOT":0}]
